NORAD_CAT_ID,OBJECT_NAME,OBJECT_TYPE,EPOCH,MEAN_MOTION,ECCENTRICITY,INCLINATION,RA_OF_ASC_NODE,ARG_OF_PERICENTER,MEAN_ANOMALY,BSTAR,MEAN_MOTION_DOT,MEAN_MOTION_DDOT,TLE_LINE0,TLE_LINE1,TLE_LINE2,SEMIMAJOR_AXIS,PERIOD,APOGEE,PERIGEE,DECAYED
55400.0,STARLINK-5632,PAYLOAD,2023-06-05 22:45:46,15.69920631,0.0003459,69.9983,97.5085,265.3181,94.7619,1.9094e-05,2.083e-05,0.0,0 STARLINK-5632,1 55400U 23014K   23156.94845484  .00002083  00000-0  19094-4 0  9997,2 55400  69.9983  97.5085 0003459 265.3181  94.7619 15.69920631 19863,6737.261,91.724,361.456,356.796,0.0
55400.0,STARLINK-5632,PAYLOAD,2023-06-06 06:24:31,15.69930606,0.0003149,69.9985,96.6132,259.4691,100.615,3.0386e-06,1.53e-06,0.0,0 STARLINK-5632,1 55400U 23014K   23157.26703481  .00000153  00000-0  30386-5 0  9997,2 55400  69.9985  96.6132 0003149 259.4691 100.6150 15.69930606 20855,6737.233,91.724,361.219,356.976,0.0
55400.0,STARLINK-5632,PAYLOAD,2023-06-06 23:13:48,15.69924663,0.0003358,69.9992,94.6444,268.7446,91.3365,8.0736e-06,7.58e-06,0.0,0 STARLINK-5632,1 55400U 23014K   23157.96792185  .00000758  00000-0  80736-5 0  9998,2 55400  69.9992  94.6444 0003358 268.7446  91.3365 15.69924663 20029,6737.25,91.724,361.377,356.852,0.0
55400.0,STARLINK-5632,PAYLOAD,2023-06-07 20:38:20,15.69921343,0.0003538,69.9981,92.1337,263.9873,96.092,1.5367e-05,1.635e-05,0.0,0 STARLINK-5632,1 55400U 23014K   23158.85995678  .00001635  00000-0  15367-4 0  9991,2 55400  69.9981  92.1337 0003538 263.9873  96.0920 15.69921343 21103,6737.259,91.724,361.508,356.74,0.0
55400.0,STARLINK-5632,PAYLOAD,2023-06-08 04:17:05,15.69929016,0.0003455,69.9981,91.2377,269.9809,90.0991,9.8114e-06,9.67e-06,0.0,0 STARLINK-5632,1 55400U 23014K   23159.17853471  .00000967  00000-0  98114-5 0  9990,2 55400  69.9981  91.2377 0003455 269.9809  90.0991 15.69929016 20218,6737.237,91.724,361.43,356.774,0.0
55400.0,STARLINK-5632,PAYLOAD,2023-06-08 22:38:07,15.69919283,0.0003385,69.9983,89.0884,267.0646,93.0162,2.8673e-06,1.32e-06,0.0,0 STARLINK-5632,1 55400U 23014K   23159.94314551  .00000132  00000-0  28673-5 0  9993,2 55400  69.9983  89.0884 0003385 267.0646  93.0162 15.69919283 20339,6737.265,91.724,361.41,356.849,0.0
55400.0,STARLINK-5632,PAYLOAD,2023-06-09 04:45:07,15.69925458,0.000333,69.999,88.3734,265.4478,94.6337,7.5821e-06,6.99e-06,0.0,0 STARLINK-5632,1 55400U 23014K   23160.19800786  .00000699  00000-0  75821-5 0  9997,2 55400  69.9990  88.3734 0003330 265.4478  94.6337 15.69925458 20374,6737.247,91.724,361.356,356.869,0.0
55400.0,STARLINK-5632,PAYLOAD,2023-06-10 05:13:09,15.69938076,0.0003341,69.998,85.5046,268.8764,91.2049,1.0292e-05,1.026e-05,0.0,0 STARLINK-5632,1 55400U 23014K   23161.21746699  .00001026  00000-0  10292-4 0  9998,2 55400  69.9980  85.5046 0003341 268.8764  91.2049 15.69938076 20536,6737.211,91.723,361.327,356.825,0.0
55400.0,STARLINK-5632,PAYLOAD,2023-06-10 12:51:57,15.69892185,0.0003803,69.997,84.6097,272.3931,87.683,-1.7233e-05,-2.282e-05,0.0,0 STARLINK-5632,1 55400U 23014K   23161.53608529 -.00002282  00000-0 -17233-4 0  9991,2 55400  69.9970  84.6097 0003803 272.3931  87.6830 15.69892185 21527,6737.342,91.726,361.77,356.645,0.0
55400.0,STARLINK-5632,PAYLOAD,2023-06-10 20:30:42,15.69916741,0.0003354,69.9985,83.7162,255.9952,104.0871,1.5804e-06,-2.3e-07,0.0,0 STARLINK-5632,1 55400U 23014K   23161.85465353 -.00000023  00000-0  15804-5 0  9995,2 55400  69.9985  83.7162 0003354 255.9952 104.0871 15.69916741 21576,6737.272,91.725,361.397,356.878,0.0
55400.0,STARLINK-5632,PAYLOAD,2023-06-11 01:05:56,15.69924244,0.0003862,69.9971,83.174,260.6558,99.4201,1.0721e-05,1.076e-05,0.0,0 STARLINK-5632,1 55400U 23014K   23162.04579636  .00001076  00000-0  10721-4 0  9997,2 55400  69.9971  83.1740 0003862 260.6558  99.4201 15.69924244 20666,6737.251,91.724,361.718,356.514,0.0
55400.0,STARLINK-5632,PAYLOAD,2023-06-11 02:37:41,15.69936306,0.0003476,69.9981,82.9977,261.787,98.2932,2.4786e-05,2.77e-05,0.0,0 STARLINK-5632,1 55400U 23014K   23162.10950406  .00002770  00000-0  24786-4 0  9990,2 55400  69.9981  82.9977 0003476 261.7870  98.2932 15.69936306 20677,6737.216,91.723,361.423,356.739,0.0
55400.0,STARLINK-5632,PAYLOAD,2023-06-11 13:19:57,15.69932019,0.0002924,69.9993,81.7441,274.9865,85.0997,3.3412e-05,3.808e-05,0.0,0 STARLINK-5632,1 55400U 23014K   23162.55552326  .00003808  00000-0  33412-4 0  9997,2 55400  69.9993  81.7441 0002924 274.9865  85.0997 15.69932019 21684,6737.228,91.724,361.063,357.124,0.0
55400.0,STARLINK-5632,PAYLOAD,2023-06-11 19:26:58,15.69930829,0.0003413,69.9979,81.0276,262.7378,97.343,2.4056e-06,7.6e-07,0.0,0 STARLINK-5632,1 55400U 23014K   23162.81039357  .00000076  00000-0  24056-5 0  9999,2 55400  69.9979  81.0276 0003413 262.7378  97.3430 15.69930829 21725,6737.232,91.724,361.396,356.797,0.0
55400.0,STARLINK-5632,PAYLOAD,2023-06-11 22:30:27,15.6993463,0.0003377,69.9978,80.6692,262.8434,97.2378,5.7869e-06,4.83e-06,0.0,0 STARLINK-5632,1 55400U 23014K   23162.93782339  .00000483  00000-0  57869-5 0  9997,2 55400  69.9978  80.6692 0003377 262.8434  97.2378 15.69934630 21740,6737.221,91.724,361.361,356.811,0.0
55400.0,STARLINK-5632,PAYLOAD,2023-06-12 04:37:28,15.6993117,0.0003419,69.998,79.9519,262.0304,98.0504,5.5371e-06,4.53e-06,0.0,0 STARLINK-5632,1 55400U 23014K   23163.19269132  .00000453  00000-0  55371-5 0  9990,2 55400  69.9980  79.9519 0003419 262.0304  98.0504 15.69931170 20843,6737.231,91.724,361.399,356.792,0.0
55400.0,STARLINK-5632,PAYLOAD,2023-06-13 00:30:15,15.69919263,0.0003502,69.9985,77.623,265.8758,94.2037,1.4002e-05,1.471e-05,0.0,0 STARLINK-5632,1 55400U 23014K   23164.02101696  .00001471  00000-0  14002-4 0  9999,2 55400  69.9985  77.6230 0003502 265.8758  94.2037 15.69919263 20972,6737.265,91.724,361.489,356.771,0.0
55400.0,STARLINK-5632,PAYLOAD,2023-06-13 03:33:45,15.69933336,0.0003306,69.998,77.2649,265.1837,94.8981,6.501e-06,5.69e-06,0.0,0 STARLINK-5632,1 55400U 23014K   23164.14844272  .00000569  00000-0  65010-5 0  9999,2 55400  69.9980  77.2649 0003306 265.1837  94.8981 15.69933336 20993,6737.225,91.724,361.317,356.862,0.0
55400.0,STARLINK-5632,PAYLOAD,2023-06-13 18:51:17,15.69921847,0.000309,69.9981,75.4734,262.7767,97.3077,1.3836e-05,1.451e-05,0.0,0 STARLINK-5632,1 55400U 23014K   23164.78561369  .00001451  00000-0  13836-4 0  9991,2 55400  69.9981  75.4734 0003090 262.7767  97.3077 15.69921847 21094,6737.258,91.724,361.204,357.041,0.0
55400.0,STARLINK-5632,PAYLOAD,2023-06-14 13:12:18,15.69924068,0.0002939,69.9983,73.3231,266.1587,93.9272,1.1236e-05,1.139e-05,0.0,0 STARLINK-5632,1 55400U 23014K   23165.55021360  .00001139  00000-0  11236-4 0  9994,2 55400  69.9983  73.3231 0002939 266.1587  93.9272 15.69924068 22159,6737.251,91.724,361.096,357.136,0.0
55400.0,STARLINK-5632,PAYLOAD,2023-06-15 02:58:04,15.69925631,0.0003224,69.9982,71.7108,269.8885,90.1941,3.8976e-06,2.56e-06,0.0,0 STARLINK-5632,1 55400U 23014K   23166.12366481  .00000256  00000-0  38976-5 0  9994,2 55400  69.9982  71.7108 0003224 269.8885  90.1941 15.69925631 21307,6737.247,91.724,361.284,356.94,0.0
55400.0,STARLINK-5632,PAYLOAD,2023-06-16 11:04:51,15.69928598,0.0003384,69.9975,67.9498,273.7901,86.2908,3.4238e-05,3.907e-05,0.0,0 STARLINK-5632,1 55400U 23014K   23167.46170788  .00003907  00000-0  34238-4 0  9997,2 55400  69.9975  67.9498 0003384 273.7901  86.2908 15.69928598 21515,6737.238,91.724,361.383,356.823,0.0
55400.0,STARLINK-5632,PAYLOAD,2023-06-16 23:18:53,15.69920471,0.0003535,69.9978,66.5168,266.359,93.7201,4.4951e-06,3.28e-06,0.0,0 STARLINK-5632,1 55400U 23014K   23167.97145122  .00000328  00000-0  44951-5 0  9995,2 55400  69.9978  66.5168 0003535 266.3590  93.7201 15.69920471 21596,6737.262,91.724,361.508,356.745,0.0
55400.0,STARLINK-5632,PAYLOAD,2023-06-17 02:22:24,15.69913774,0.0003574,69.9974,66.1586,259.8612,100.218,-2.1887e-06,-4.76e-06,0.0,0 STARLINK-5632,1 55400U 23014K   23168.09888988 -.00000476  00000-0 -21887-5 0  9992,2 55400  69.9974  66.1586 0003574 259.8612 100.2180 15.69913774 21618,6737.281,91.725,361.554,356.738,0.0
55400.0,STARLINK-5632,PAYLOAD,2023-06-17 20:43:25,15.69917042,0.0003016,69.9972,64.0095,276.1065,83.9787,3.1899e-06,1.71e-06,0.0,0 STARLINK-5632,1 55400U 23014K   23168.86349419  .00000171  00000-0  31899-5 0  9992,2 55400  69.9972  64.0095 0003016 276.1065  83.9787 15.69917042 22672,6737.271,91.725,361.168,357.104,0.0
55400.0,STARLINK-5632,PAYLOAD,2023-06-17 23:46:54,15.69936708,0.0003719,69.9971,63.6514,261.6088,98.4686,2.4736e-05,2.764e-05,0.0,0 STARLINK-5632,1 55400U 23014K   23168.99090927  .00002764  00000-0  24736-4 0  9994,2 55400  69.9971  63.6514 0003719 261.6088  98.4686 15.69936708 21753,6737.215,91.723,361.586,356.575,0.0
55400.0,STARLINK-5632,PAYLOAD,2023-06-18 10:29:11,15.69929565,0.0003303,69.9983,62.3957,266.6509,93.4309,8.1844e-06,7.72e-06,0.0,0 STARLINK-5632,1 55400U 23014K   23169.43693299  .00000772  00000-0  81844-5 0  9996,2 55400  69.9983  62.3957 0003303 266.6509  93.4309 15.69929565 22767,6737.236,91.724,361.326,356.875,0.0
55400.0,STARLINK-5632,PAYLOAD,2023-06-18 16:36:11,15.69921554,0.0003314,69.9977,61.6791,262.7742,97.3077,2.0345e-05,2.234e-05,0.0,0 STARLINK-5632,1 55400U 23014K   23169.69180168  .00002234  00000-0  20345-4 0  9993,2 55400  69.9977  61.6791 0003314 262.7742  97.3077 15.69921554 21861,6737.258,91.724,361.356,356.891,0.0
55400.0,STARLINK-5632,PAYLOAD,2023-06-19 01:46:42,15.69925619,0.0003275,69.9977,60.605,264.276,95.8063,1.9334e-05,2.113e-05,0.0,0 STARLINK-5632,1 55400U 23014K   23170.07410053  .00002113  00000-0  19334-4 0  9998,2 55400  69.9977  60.6050 0003275 264.2760  95.8063 15.69925619 22866,6737.247,91.724,361.318,356.905,0.0
55400.0,STARLINK-5632,PAYLOAD,2023-06-19 23:11:14,15.69929845,0.0003779,69.997,58.0982,262.6208,97.4558,1.3147e-06,-5.5e-07,0.0,0 STARLINK-5632,1 55400U 23014K   23170.96613643 -.00000055  00000-0  13147-5 0  9997,2 55400  69.9970  58.0982 0003779 262.6208  97.4558 15.69929845 22066,6737.235,91.724,361.646,356.554,0.0
